[{"OBJECT_NAME":"STARLINK-31445","OBJECT_ID":"2024-056S","EPOCH":"2026-03-09T18:19:03.882432","MEAN_MOTION":15.2756585,"ECCENTRICITY":0.0001523,"INCLINATION":42.9999,"RA_OF_ASC_NODE":237.3767,"ARG_OF_PERICENTER":276.6676,"MEAN_ANOMALY":83.4003,"EPHEMERIS_TYPE":0,"CLASSIFICATION_TYPE":"U","NORAD_CAT_ID":59312,"ELEMENT_SET_NO":999,"REV_AT_EPOCH":11108,"BSTAR":-5.7292567e-5,"MEAN_MOTION_DOT":-1.838e-5,"MEAN_MOTION_DDOT":0},{"OBJECT_NAME":"OBJECT G","OBJECT_ID":"2025-155G","EPOCH":"2026-03-09T22:09:56.639808","MEAN_MOTION":15.27590702,"ECCENTRICITY":0.00081871,"INCLINATION":97.4488,"RA_OF_ASC_NODE":37.3259,"ARG_OF_PERICENTER":154.1528,"MEAN_ANOMALY":206.0122,"EPHEMERIS_TYPE":0,"CLASSIFICATION_TYPE":"U","NORAD_CAT_ID":64882,"ELEMENT_SET_NO":999,"REV_AT_EPOCH":6559,"BSTAR":0.0004792617,"MEAN_MOTION_DOT":0.00012876,"MEAN_MOTION_DDOT":0}]
